{
  "type": "FeatureCollection",
  "features": [
    {
      "type": "Feature",
      "properties": {
        "norad_id": 67004,
        "name": "STARLINK-35913",
        "group": "last-30-days",
        "lat": 15.915409858214149,
        "lon": -65.57833858315134,
        "alt_km": 334.4513136793621,
        "timestamp": "2025-12-24T22:42:20.748245+00:00",
        "meta_object_name": "STARLINK-35913",
        "meta_object_id": "2025-293B",
        "meta_epoch": "2025-12-24T06:00:02.000160",
        "meta_mean_motion": 15.81225404,
        "meta_eccentricity": 0.00038405,
        "meta_inclination": 69.9929,
        "meta_ra_of_asc_node": 290.4436,
        "meta_arg_of_pericenter": 274.3242,
        "meta_mean_anomaly": 104.7602,
        "meta_ephemeris_type": 0,
        "meta_classification_type": "U",
        "meta_norad_cat_id": 67004,
        "meta_element_set_no": 999,
        "meta_rev_at_epoch": 202,
        "meta_bstar": -0.0091720741,
        "meta_mean_motion_dot": -0.01583935,
        "meta_mean_motion_ddot": 0,
        "tle_line1": "1 67004U 25293B   25358.25002315 -.01583935  00000+0 -91721-2 0  9996",
        "tle_line2": "2 67004  69.9929 290.4436 0003840 274.3242 104.7602 15.81225404  2026"
      },
      "geometry": {
        "type": "Point",
        "coordinates": [
          -65.57833858315134,
          15.915409858214149
        ]
      }
    },
    {
      "type": "Feature",
      "properties": {
        "norad_id": 67005,
        "name": "STARLINK-36148",
        "group": "last-30-days",
        "lat": 18.046460320858642,
        "lon": -64.72629499257918,
        "alt_km": 334.29664829329977,
        "timestamp": "2025-12-24T22:42:20.748264+00:00",
        "meta_object_name": "STARLINK-36148",
        "meta_object_id": "2025-293C",
        "meta_epoch": "2025-12-24T06:00:02.000160",
        "meta_mean_motion": 15.81215977,
        "meta_eccentricity": 0.00039199,
        "meta_inclination": 69.9931,
        "meta_ra_of_asc_node": 290.4413,
        "meta_arg_of_pericenter": 273.7974,
        "meta_mean_anomaly": 107.6009,
        "meta_ephemeris_type": 0,
        "meta_classification_type": "U",
        "meta_norad_cat_id": 67005,
        "meta_element_set_no": 999,
        "meta_rev_at_epoch": 202,
        "meta_bstar": -0.0092080436,
        "meta_mean_motion_dot": -0.01588841,
        "meta_mean_motion_ddot": 0,
        "tle_line1": "1 67005U 25293C   25358.25002315 -.01588841  00000+0 -92080-2 0  9997",
        "tle_line2": "2 67005  69.9931 290.4413 0003919 273.7974 107.6009 15.81215977  2024"
      },
      "geometry": {
        "type": "Point",
        "coordinates": [
          -64.72629499257918,
          18.046460320858642
        ]
      }
    },
    {
      "type": "Feature",
      "properties": {
        "norad_id": 67006,
        "name": "STARLINK-36156",
        "group": "last-30-days",
        "lat": 22.848147925764348,
        "lon": -62.71954879644107,
        "alt_km": 333.74172031690705,
        "timestamp": "2025-12-24T22:42:20.748276+00:00",
        "meta_object_name": "STARLINK-36156",
        "meta_object_id": "2025-293D",
        "meta_epoch": "2025-12-24T06:00:02.000160",
        "meta_mean_motion": 15.81161947,
        "meta_eccentricity": 0.0003945,
        "meta_inclination": 69.9929,
        "meta_ra_of_asc_node": 290.4345,
        "meta_arg_of_pericenter": 276.7729,
        "meta_mean_anomaly": 109.9068,
        "meta_ephemeris_type": 0,
        "meta_classification_type": "U",
        "meta_norad_cat_id": 67006,
        "meta_element_set_no": 999,
        "meta_rev_at_epoch": 202,
        "meta_bstar": -0.0092062227,
        "meta_mean_motion_dot": -0.01585097,
        "meta_mean_motion_ddot": 0,
        "tle_line1": "1 67006U 25293D   25358.25002315 -.01585097  00000+0 -92062-2 0  9998",
        "tle_line2": "2 67006  69.9929 290.4345 0003945 276.7729 109.9068 15.81161947  2023"
      },
      "geometry": {
        "type": "Point",
        "coordinates": [
          -62.71954879644107,
          22.848147925764348
        ]
      }
    },
    {
      "type": "Feature",
      "properties": {
        "norad_id": 67007,
        "name": "STARLINK-36123",
        "group": "last-30-days",
        "lat": 20.620242042996672,
        "lon": -63.667853016172884,
        "alt_km": 334.05258075166876,
        "timestamp": "2025-12-24T22:42:20.748285+00:00",
        "meta_object_name": "STARLINK-36123",
        "meta_object_id": "2025-293E",
        "meta_epoch": "2025-12-24T06:00:02.000160",
        "meta_mean_motion": 15.81181446,
        "meta_eccentricity": 0.00038743,
        "meta_inclination": 69.9928,
        "meta_ra_of_asc_node": 290.4373,
        "meta_arg_of_pericenter": 274.4165,
        "meta_mean_anomaly": 109.8265,
        "meta_ephemeris_type": 0,
        "meta_classification_type": "U",
        "meta_norad_cat_id": 67007,
        "meta_element_set_no": 999,
        "meta_rev_at_epoch": 202,
        "meta_bstar": -0.0092156484,
        "meta_mean_motion_dot": -0.01587704,
        "meta_mean_motion_ddot": 0,
        "tle_line1": "1 67007U 25293E   25358.25002315 -.01587704  00000+0 -92156-2 0  9990",
        "tle_line2": "2 67007  69.9928 290.4373 0003874 274.4165 109.8265 15.81181446  2028"
      },
      "geometry": {
        "type": "Point",
        "coordinates": [
          -63.667853016172884,
          20.620242042996672
        ]
      }
    },
    {
      "type": "Feature",
      "properties": {
        "norad_id": 67008,
        "name": "STARLINK-36163",
        "group": "last-30-days",
        "lat": 25.574021097853958,
        "lon": -61.51204225216707,
        "alt_km": 333.4633987385196,
        "timestamp": "2025-12-24T22:42:20.748295+00:00",
        "meta_object_name": "STARLINK-36163",
        "meta_object_id": "2025-293F",
        "meta_epoch": "2025-12-24T06:00:02.000160",
        "meta_mean_motion": 15.81123819,
        "meta_eccentricity": 0.00037461,
        "meta_inclination": 69.993,
        "meta_ra_of_asc_node": 290.4311,
        "meta_arg_of_pericenter": 277.0894,
        "meta_mean_anomaly": 112.6281,
        "meta_ephemeris_type": 0,
        "meta_classification_type": "U",
        "meta_norad_cat_id": 67008,
        "meta_element_set_no": 999,
        "meta_rev_at_epoch": 202,
        "meta_bstar": -0.0092275565,
        "meta_mean_motion_dot": -0.01585635,
        "meta_mean_motion_ddot": 0,
        "tle_line1": "1 67008U 25293F   25358.25002315 -.01585635  00000+0 -92276-2 0  9995",
        "tle_line2": "2 67008  69.9930 290.4311 0003746 277.0894 112.6281 15.81123819  2020"
      },
      "geometry": {
        "type": "Point",
        "coordinates": [
          -61.51204225216707,
          25.574021097853958
        ]
      }
    },
    {
      "type": "Feature",
      "properties": {
        "norad_id": 67009,
        "name": "STARLINK-36118",
        "group": "last-30-days",
        "lat": 27.90994394098464,
        "lon": -60.42912154235146,
        "alt_km": 333.1268990254712,
        "timestamp": "2025-12-24T22:42:20.748305+00:00",
        "meta_object_name": "STARLINK-36118",
        "meta_object_id": "2025-293G",
        "meta_epoch": "2025-12-24T06:00:02.000160",
        "meta_mean_motion": 15.8109921,
        "meta_eccentricity": 0.0003655,
        "meta_inclination": 69.9929,
        "meta_ra_of_asc_node": 290.4279,
        "meta_arg_of_pericenter": 279.1016,
        "meta_mean_anomaly": 113.2003,
        "meta_ephemeris_type": 0,
        "meta_classification_type": "U",
        "meta_norad_cat_id": 67009,
        "meta_element_set_no": 999,
        "meta_rev_at_epoch": 196,
        "meta_bstar": -0.0092235344,
        "meta_mean_motion_dot": -0.01583348,
        "meta_mean_motion_ddot": 0,
        "tle_line1": "1 67009U 25293G   25358.25002315 -.01583348  00000+0 -92235-2 0  9990",
        "tle_line2": "2 67009  69.9929 290.4279 0003655 279.1016 113.2003 15.81099210  1968"
      },
      "geometry": {
        "type": "Point",
        "coordinates": [
          -60.42912154235146,
          27.90994394098464
        ]
      }
    },
    {
      "type": "Feature",
      "properties": {
        "norad_id": 67010,
        "name": "STARLINK-36189",
        "group": "last-30-days",
        "lat": 32.168400537449656,
        "lon": -58.314095874917676,
        "alt_km": 333.0572024620642,
        "timestamp": "2025-12-24T22:42:20.748315+00:00",
        "meta_object_name": "STARLINK-36189",
        "meta_object_id": "2025-293H",
        "meta_epoch": "2025-12-24T06:00:02.000160",
        "meta_mean_motion": 15.81084438,
        "meta_eccentricity": 0.00037287,
        "meta_inclination": 69.9928,
        "meta_ra_of_asc_node": 290.4224,
        "meta_arg_of_pericenter": 270.9537,
        "meta_mean_anomaly": 126.0522,
        "meta_ephemeris_type": 0,
        "meta_classification_type": "U",
        "meta_norad_cat_id": 67010,
        "meta_element_set_no": 999,
        "meta_rev_at_epoch": 202,
        "meta_bstar": -0.0093307777,
        "meta_mean_motion_dot": -0.01598548,
        "meta_mean_motion_ddot": 0,
        "tle_line1": "1 67010U 25293H   25358.25002315 -.01598548  00000+0 -93308-2 0  9992",
        "tle_line2": "2 67010  69.9928 290.4224 0003728 270.9537 126.0522 15.81084438  2029"
      },
      "geometry": {
        "type": "Point",
        "coordinates": [
          -58.314095874917676,
          32.168400537449656
        ]
      }
    }
  ]
}